[{"OBJECT_NAME":"STARLINK-5666","OBJECT_ID":"2023-013U","EPOCH":"2026-03-07T23:40:22.757664","MEAN_MOTION":15.02537813,"ECCENTRICITY":0.00011448,"INCLINATION":43.004,"RA_OF_ASC_NODE":309.5501,"ARG_OF_PERICENTER":273.5114,"MEAN_ANOMALY":86.5598,"EPHEMERIS_TYPE":0,"CLASSIFICATION_TYPE":"U","NORAD_CAT_ID":55349,"ELEMENT_SET_NO":999,"REV_AT_EPOCH":17145,"BSTAR":4.2868148e-5,"MEAN_MOTION_DOT":3.76e-6,"MEAN_MOTION_DDOT":0},{"OBJECT_NAME":"LEMUR-2-MYNAMEISJEFF","OBJECT_ID":"2025-009DH","EPOCH":"2026-03-09T16:38:25.798560","MEAN_MOTION":15.02075007,"ECCENTRICITY":0.0004441,"INCLINATION":97.7341,"RA_OF_ASC_NODE":151.959,"ARG_OF_PERICENTER":147.2142,"MEAN_ANOMALY":212.9359,"EPHEMERIS_TYPE":0,"CLASSIFICATION_TYPE":"U","NORAD_CAT_ID":62712,"ELEMENT_SET_NO":999,"REV_AT_EPOCH":6268,"BSTAR":0.00083427599,"MEAN_MOTION_DOT":0.00010906,"MEAN_MOTION_DDOT":0}]
